IRIDIUM 36 [-]          
1 24967U 97056C   23279.89631941  .00001198  00000+0  40257-3 0  9998
2 24967  86.3929  72.9922 0002001  95.1616 264.9809 14.36430422363288
IRIDIUM 39 [-]          
1 25042U 97069D   23280.54711321  .00001284  00000+0  34420-3 0  9993
2 25042  86.3875 116.0906 0017383 204.5998 155.4378 14.47390989359682
IRIDIUM 38 [-]          
1 25043U 97069E   23280.54162497  .00000792  00000+0  26122-3 0  9991
2 25043  86.3950 133.2410 0002698  35.1310 325.0065 14.36902336357349
IRIDIUM 42 [-]          
1 25077U 97077A   23280.08569488  .00000708  00000+0  24092-3 0  9998
2 25077  86.3968 138.8458 0002055  68.0923 292.0491 14.35216876352369
IRIDIUM 44 [-]          
1 25078U 97077B   23279.81557192  .00000893  00000+0  28322-3 0  9992
2 25078  86.3925 122.5522 0000259 111.3884 248.7342 14.39002351354592
IRIDIUM 45 [-]          
1 25104U 97082A   23280.45524540  .00016699  00000+0  10700-2 0  9992
2 25104  86.3799 340.6553 0182288  77.5955 284.5608 14.95631865359096
IRIDIUM 24 [-]          
1 25105U 97082B   23280.42427585  .00000935  00000+0  28637-3 0  9996
2 25105  86.3948 342.3209 0010196 329.7585  30.3025 14.40761608354330
IRIDIUM 51 [-]          
1 25262U 98018A   23279.92669778  .00017068  00000+0  94622-3 0  9997
2 25262  86.3966 351.4477 0166918  34.8859 326.3177 15.02450549353135
